{
  "type": "FeatureCollection",
  "features": [
    {
      "type": "Feature",
      "properties": {
        "norad_id": 66436,
        "name": "STARLINK-35501",
        "group": "last-30-days",
        "lat": 41.00109065121478,
        "lon": 166.6332817467362,
        "alt_km": 438.3153308399915,
        "timestamp": "2025-12-11T08:58:25.853224+00:00",
        "meta_object_name": "STARLINK-35501",
        "meta_object_id": "2025-259Q",
        "meta_epoch": "2025-12-11T04:00:01.998720",
        "meta_mean_motion": 15.40608255,
        "meta_eccentricity": 0.0001293,
        "meta_inclination": 42.9998,
        "meta_ra_of_asc_node": 56.719,
        "meta_arg_of_pericenter": 239.6837,
        "meta_mean_anomaly": 155.4123,
        "meta_ephemeris_type": 0,
        "meta_classification_type": "U",
        "meta_norad_cat_id": 66436,
        "meta_element_set_no": 999,
        "meta_rev_at_epoch": 602,
        "meta_bstar": 0.002132,
        "meta_mean_motion_dot": 0.00089534,
        "meta_mean_motion_ddot": 0,
        "tle_line1": "1 66436U 25259Q   25345.16668980  .00089534  00000+0  21320-2 0  9999",
        "tle_line2": "2 66436  42.9998  56.7190 0001293 239.6837 155.4123 15.40608255  6024"
      },
      "geometry": {
        "type": "Point",
        "coordinates": [
          166.6332817467362,
          41.00109065121478
        ]
      }
    },
    {
      "type": "Feature",
      "properties": {
        "norad_id": 66437,
        "name": "STARLINK-35474",
        "group": "last-30-days",
        "lat": 36.91525140312993,
        "lon": -178.2300451931632,
        "alt_km": 439.0238232093552,
        "timestamp": "2025-12-11T08:58:25.853235+00:00",
        "meta_object_name": "STARLINK-35474",
        "meta_object_id": "2025-259R",
        "meta_epoch": "2025-12-11T04:00:01.998720",
        "meta_mean_motion": 15.40600483,
        "meta_eccentricity": 0.0001599,
        "meta_inclination": 42.9998,
        "meta_ra_of_asc_node": 56.6887,
        "meta_arg_of_pericenter": 249.2049,
        "meta_mean_anomaly": 158.3375,
        "meta_ephemeris_type": 0,
        "meta_classification_type": "U",
        "meta_norad_cat_id": 66437,
        "meta_element_set_no": 999,
        "meta_rev_at_epoch": 602,
        "meta_bstar": 0.0033669,
        "meta_mean_motion_dot": 0.00142527,
        "meta_mean_motion_ddot": 0,
        "tle_line1": "1 66437U 25259R   25345.16668980  .00142527  00000+0  33669-2 0  9991",
        "tle_line2": "2 66437  42.9998  56.6887 0001599 249.2049 158.3375 15.40600483  6024"
      },
      "geometry": {
        "type": "Point",
        "coordinates": [
          -178.2300451931632,
          36.91525140312993
        ]
      }
    },
    {
      "type": "Feature",
      "properties": {
        "norad_id": 66438,
        "name": "STARLINK-34681",
        "group": "last-30-days",
        "lat": 31.137976510428878,
        "lon": -164.95093907998637,
        "alt_km": 439.54815243153917,
        "timestamp": "2025-12-11T08:58:25.853246+00:00",
        "meta_object_name": "STARLINK-34681",
        "meta_object_id": "2025-259S",
        "meta_epoch": "2025-12-11T04:00:01.998720",
        "meta_mean_motion": 15.40622337,
        "meta_eccentricity": 0.0001136,
        "meta_inclination": 43,
        "meta_ra_of_asc_node": 56.6587,
        "meta_arg_of_pericenter": 244.7896,
        "meta_mean_anomaly": 175.163,
        "meta_ephemeris_type": 0,
        "meta_classification_type": "U",
        "meta_norad_cat_id": 66438,
        "meta_element_set_no": 999,
        "meta_rev_at_epoch": 592,
        "meta_bstar": 0.0020998,
        "meta_mean_motion_dot": 0.00088203,
        "meta_mean_motion_ddot": 0,
        "tle_line1": "1 66438U 25259S   25345.16668980  .00088203  00000+0  20998-2 0  9993",
        "tle_line2": "2 66438  43.0000  56.6587 0001136 244.7896 175.1630 15.40622337  5926"
      },
      "geometry": {
        "type": "Point",
        "coordinates": [
          -164.95093907998637,
          31.137976510428878
        ]
      }
    },
    {
      "type": "Feature",
      "properties": {
        "norad_id": 66439,
        "name": "STARLINK-35327",
        "group": "last-30-days",
        "lat": 42.890344661470124,
        "lon": 150.08167645535883,
        "alt_km": 438.00341790849234,
        "timestamp": "2025-12-11T08:58:25.853257+00:00",
        "meta_object_name": "STARLINK-35327",
        "meta_object_id": "2025-259T",
        "meta_epoch": "2025-12-11T04:00:01.998720",
        "meta_mean_motion": 15.40618529,
        "meta_eccentricity": 0.0001117,
        "meta_inclination": 42.9998,
        "meta_ra_of_asc_node": 56.7514,
        "meta_arg_of_pericenter": 237.5293,
        "meta_mean_anomaly": 145.116,
        "meta_ephemeris_type": 0,
        "meta_classification_type": "U",
        "meta_norad_cat_id": 66439,
        "meta_element_set_no": 999,
        "meta_rev_at_epoch": 602,
        "meta_bstar": 0.0020062,
        "meta_mean_motion_dot": 0.00084203,
        "meta_mean_motion_ddot": 0,
        "tle_line1": "1 66439U 25259T   25345.16668980  .00084203  00000+0  20062-2 0  9992",
        "tle_line2": "2 66439  42.9998  56.7514 0001117 237.5293 145.1160 15.40618529  6027"
      },
      "geometry": {
        "type": "Point",
        "coordinates": [
          150.08167645535883,
          42.890344661470124
        ]
      }
    },
    {
      "type": "Feature",
      "properties": {
        "norad_id": 66440,
        "name": "STARLINK-35405",
        "group": "last-30-days",
        "lat": 24.135082236861194,
        "lon": -153.3031037263041,
        "alt_km": 440.5608820319858,
        "timestamp": "2025-12-11T08:58:25.853268+00:00",
        "meta_object_name": "STARLINK-35405",
        "meta_object_id": "2025-259U",
        "meta_epoch": "2025-12-11T04:00:01.998720",
        "meta_mean_motion": 15.40600961,
        "meta_eccentricity": 0.0001521,
        "meta_inclination": 43.0002,
        "meta_ra_of_asc_node": 56.6301,
        "meta_arg_of_pericenter": 240.2554,
        "meta_mean_anomaly": 192.1842,
        "meta_ephemeris_type": 0,
        "meta_classification_type": "U",
        "meta_norad_cat_id": 66440,
        "meta_element_set_no": 999,
        "meta_rev_at_epoch": 602,
        "meta_bstar": 0.0021739,
        "meta_mean_motion_dot": 0.00091296,
        "meta_mean_motion_ddot": 0,
        "tle_line1": "1 66440U 25259U   25345.16668980  .00091296  00000+0  21739-2 0  9996",
        "tle_line2": "2 66440  43.0002  56.6301 0001521 240.2554 192.1842 15.40600961  6020"
      },
      "geometry": {
        "type": "Point",
        "coordinates": [
          -153.3031037263041,
          24.135082236861194
        ]
      }
    },
    {
      "type": "Feature",
      "properties": {
        "norad_id": 66441,
        "name": "STARLINK-35426",
        "group": "last-30-days",
        "lat": 16.383845894850023,
        "lon": -142.98707178372507,
        "alt_km": 441.799771847428,
        "timestamp": "2025-12-11T08:58:25.853279+00:00",
        "meta_object_name": "STARLINK-35426",
        "meta_object_id": "2025-259V",
        "meta_epoch": "2025-12-11T04:00:01.998720",
        "meta_mean_motion": 15.40615987,
        "meta_eccentricity": 0.0001312,
        "meta_inclination": 43.0004,
        "meta_ra_of_asc_node": 56.5986,
        "meta_arg_of_pericenter": 260.4172,
        "meta_mean_anomaly": 184.4056,
        "meta_ephemeris_type": 0,
        "meta_classification_type": "U",
        "meta_norad_cat_id": 66441,
        "meta_element_set_no": 999,
        "meta_rev_at_epoch": 602,
        "meta_bstar": 0.0030466,
        "meta_mean_motion_dot": 0.00128772,
        "meta_mean_motion_ddot": 0,
        "tle_line1": "1 66441U 25259V   25345.16668980  .00128772  00000+0  30466-2 0  9994",
        "tle_line2": "2 66441  43.0004  56.5986 0001312 260.4172 184.4056 15.40615987  6024"
      },
      "geometry": {
        "type": "Point",
        "coordinates": [
          -142.98707178372507,
          16.383845894850023
        ]
      }
    },
    {
      "type": "Feature",
      "properties": {
        "norad_id": 66442,
        "name": "STARLINK-34724",
        "group": "last-30-days",
        "lat": 8.140850515811012,
        "lon": -133.45549061962834,
        "alt_km": 442.93496593747386,
        "timestamp": "2025-12-11T08:58:25.853291+00:00",
        "meta_object_name": "STARLINK-34724",
        "meta_object_id": "2025-259W",
        "meta_epoch": "2025-12-11T04:00:01.998720",
        "meta_mean_motion": 15.40628973,
        "meta_eccentricity": 0.0001265,
        "meta_inclination": 43.0006,
        "meta_ra_of_asc_node": 56.569,
        "meta_arg_of_pericenter": 265.2302,
        "meta_mean_anomaly": 192.035,
        "meta_ephemeris_type": 0,
        "meta_classification_type": "U",
        "meta_norad_cat_id": 66442,
        "meta_element_set_no": 999,
        "meta_rev_at_epoch": 602,
        "meta_bstar": 0.001983,
        "meta_mean_motion_dot": 0.00083244,
        "meta_mean_motion_ddot": 0,
        "tle_line1": "1 66442U 25259W   25345.16668980  .00083244  00000+0  19830-2 0  9991",
        "tle_line2": "2 66442  43.0006  56.5690 0001265 265.2302 192.0350 15.40628973  6025"
      },
      "geometry": {
        "type": "Point",
        "coordinates": [
          -133.45549061962834,
          8.140850515811012
        ]
      }
    }
  ]
}